NORAD_CAT_ID,OBJECT_NAME,OBJECT_TYPE,EPOCH,MEAN_MOTION,ECCENTRICITY,INCLINATION,RA_OF_ASC_NODE,ARG_OF_PERICENTER,MEAN_ANOMALY,BSTAR,MEAN_MOTION_DOT,MEAN_MOTION_DDOT,TLE_LINE0,TLE_LINE1,TLE_LINE2,SEMIMAJOR_AXIS,PERIOD,APOGEE,PERIGEE,DECAYED
52337.0,STARLINK-3797,PAYLOAD,2023-01-05 17:09:28,15.08833507,0.0002773,53.2164,11.9556,30.9441,329.1714,0.00010867,1.441e-05,0.0,0 STARLINK-3797,1 52337U 22045G   23005.71491500  .00001441  00000-0  10867-3 0  9995,2 52337  53.2164  11.9556 0002773  30.9441 329.1714 15.08833507 40674,6917.9,95.438,541.684,537.847,0.0
52337.0,STARLINK-3797,PAYLOAD,2023-01-07 02:32:35,15.08836861,0.0002732,53.2175,5.7105,44.338,315.7831,0.00014564,2.03e-05,0.0,0 STARLINK-3797,1 52337U 22045G   23007.10596199  .00002030  00000-0  14564-3 0  9993,2 52337  53.2175   5.7105 0002732  44.3380 315.7831 15.08836861 40883,6917.89,95.438,541.645,537.865,0.0
52337.0,STARLINK-3797,PAYLOAD,2023-01-07 04:07:58,15.08834323,0.0002615,53.217,5.4117,41.7506,318.3685,0.00013662,1.886e-05,0.0,0 STARLINK-3797,1 52337U 22045G   23007.17220282  .00001886  00000-0  13662-3 0  9993,2 52337  53.2170   5.4117 0002615  41.7506 318.3685 15.08834323 40897,6917.898,95.438,541.572,537.9540000000002,0.0
52337.0,STARLINK-3797,PAYLOAD,2023-01-08 05:34:08,15.08846559,0.0002621,53.2171,0.6547,40.5491,319.5696,0.00027591,4.106e-05,0.0,0 STARLINK-3797,1 52337U 22045G   23008.23204024  .00004106  00000-0  27591-3 0  9991,2 52337  53.2171   0.6547 0002621  40.5491 319.5696 15.08846559 41057,6917.86,95.437,541.539,537.9119999999998,0.0
52337.0,STARLINK-3797,PAYLOAD,2023-01-09 10:11:04,15.08858113,0.0002519,53.2175,355.3019,47.8757,312.2449,0.00037954,5.76e-05,0.0,0 STARLINK-3797,1 52337U 22045G   23009.42435313  .00005760  00000-0  37954-3 0  9991,2 52337  53.2175 355.3019 0002519  47.8757 312.2449 15.08858113 41231,6917.825,95.436,541.433,537.947,0.0
52337.0,STARLINK-3797,PAYLOAD,2023-01-09 16:32:36,15.08859434,0.0002411,53.2179,354.1116,50.075,310.0454,0.00035426,5.357e-05,0.0,0 STARLINK-3797,1 52337U 22045G   23009.68931018  .00005357  00000-0  35426-3 0  9996,2 52337  53.2179 354.1116 0002411  50.0750 310.0454 15.08859434 41273,6917.821,95.436,541.354,538.018,0.0
52337.0,STARLINK-3797,PAYLOAD,2023-01-10 06:51:05,15.08847817,0.0002284,53.2171,351.4356,52.929,307.1911,0.00027563,4.102e-05,0.0,0 STARLINK-3797,1 52337U 22045G   23010.28547855  .00004102  00000-0  27563-3 0  9996,2 52337  53.2171 351.4356 0002284  52.9290 307.1911 15.08847817 41366,6917.856,95.437,541.302,538.141,0.0
52337.0,STARLINK-3797,PAYLOAD,2023-01-10 10:01:51,15.08855767,0.0002293,53.2175,350.841,54.9062,305.2145,0.00060756,9.399e-05,0.0,0 STARLINK-3797,1 52337U 22045G   23010.41795688  .00009399  00000-0  60756-3 0  9994,2 52337  53.2175 350.8410 0002293  54.9062 305.2145 15.08855767 41386,6917.831999999999,95.437,541.283,538.111,0.0
52337.0,STARLINK-3797,PAYLOAD,2023-01-10 22:44:57,15.08840779,0.0002204,53.2177,348.4627,58.5289,301.5919,0.00080573,0.00012559,0.0,0 STARLINK-3797,1 52337U 22045G   23010.94788331  .00012559  00000-0  80573-3 0  9990,2 52337  53.2177 348.4627 0002204  58.5289 301.5919 15.08840779 41468,6917.8780000000015,95.438,541.268,538.2180000000002,0.0
52337.0,STARLINK-3797,PAYLOAD,2023-01-11 05:06:29,15.08850629,0.000202,53.2179,347.2736,66.3358,293.7846,0.0016132999999999,0.00025489,0.0,0 STARLINK-3797,1 52337U 22045G   23011.21284229  .00025489  00000-0  16133-2 0  9994,2 52337  53.2179 347.2736 0002020  66.3358 293.7846 15.08850629 41509,6917.848000000001,95.437,541.11,538.315,0.0
52337.0,STARLINK-3797,PAYLOAD,2023-01-11 08:17:15,15.0886083,0.0002121,53.2181,346.6785,63.9701,296.1509,0.0017903,0.00028336,0.0,0 STARLINK-3797,1 52337U 22045G   23011.34532074  .00028336  00000-0  17903-2 0  9992,2 52337  53.2181 346.6785 0002121  63.9701 296.1509 15.08860830 41526,6917.816999999999,95.436,541.149,538.214,0.0
52337.0,STARLINK-3797,PAYLOAD,2023-01-11 14:38:48,15.08844917,0.0002302,53.2182,345.4886,66.6253,293.4981,0.00092965,0.0001453999999999,0.0,0 STARLINK-3797,1 52337U 22045G   23011.61028406  .00014540  00000-0  92965-3 0  9995,2 52337  53.2182 345.4886 0002302  66.6253 293.4981 15.08844917 41565,6917.865,95.437,541.323,538.138,0.0
52337.0,STARLINK-3797,PAYLOAD,2023-01-12 14:29:35,15.08831291,0.0002619,53.2178,341.0288,78.4496,281.6790000000001,-0.00010713,-1.993e-05,0.0,0 STARLINK-3797,1 52337U 22045G   23012.60388434 -.00001993  00000-0 -10713-3 0  9996,2 52337  53.2178 341.0288 0002619  78.4496 281.6790 15.08831291 41714,6917.906999999998,95.438,541.5840000000002,537.96,0.0
52337.0,STARLINK-3797,PAYLOAD,2023-01-13 03:12:40,15.08845012,0.0001548,53.2179,338.6514,88.0194,272.0976,0.0020412,0.00032352,0.0,0 STARLINK-3797,1 52337U 22045G   23013.13380202  .00032352  00000-0  20412-2 0  9997,2 52337  53.2179 338.6514 0001548  88.0194 272.0976 15.08845012 41795,6917.865,95.437,540.8009999999998,538.659,0.0
52337.0,STARLINK-3797,PAYLOAD,2023-01-13 14:20:22,15.08855418,0.0001535,53.2173,336.5708,92.0074,268.1094,0.0015807,0.00024969,0.0,0 STARLINK-3797,1 52337U 22045G   23013.59748228  .00024969  00000-0  15807-2 0  9990,2 52337  53.2173 336.5708 0001535  92.0074 268.1094 15.08855418 41865,6917.8330000000005,95.437,540.76,538.636,0.0
52337.0,STARLINK-3797,PAYLOAD,2023-01-14 06:14:13,15.08877707,0.000168,53.2169,333.5948,92.3113,267.8072,0.0028986999999999,0.00046195,0.0,0 STARLINK-3797,1 52337U 22045G   23014.25987874  .00046195  00000-0  28987-2 0  9994,2 52337  53.2169 333.5948 0001680  92.3113 267.8072 15.08877707 41969,6917.765,95.435,540.7919999999999,538.4680000000001,0.0
52337.0,STARLINK-3797,PAYLOAD,2023-01-14 20:32:41,15.08862373,0.0002072,53.2167,330.9203,86.7377,273.3852,0.0021814,0.00034622,0.0,0 STARLINK-3797,1 52337U 22045G   23014.85604055  .00034622  00000-0  21814-2 0  9991,2 52337  53.2167 330.9203 0002072  86.7377 273.3852 15.08862373 42059,6917.812,95.436,541.11,538.244,0.0
52337.0,STARLINK-3797,PAYLOAD,2023-01-15 06:05:00,15.08867546,9.82e-05,53.217,329.1325,113.2913,246.8182,0.0020513,0.00032534,0.0,0 STARLINK-3797,1 52337U 22045G   23015.25347548  .00032534  00000-0  20513-2 0  9992,2 52337  53.2170 329.1325 0000982 113.2913 246.8182 15.08867546 42113,6917.795999999999,95.436,540.341,538.982,0.0
52337.0,STARLINK-3797,PAYLOAD,2023-01-15 14:01:56,15.088568400000002,0.000198,53.2159,327.6497,76.8816,283.2397,0.0013769,0.00021704,0.0,0 STARLINK-3797,1 52337U 22045G   23015.58467981  .00021704  00000-0  13769-2 0  9994,2 52337  53.2159 327.6497 0001980  76.8816 283.2397 15.08856840 42161,6917.829000000001,95.436,541.064,538.3240000000001,0.0
52337.0,STARLINK-3797,PAYLOAD,2023-01-16 13:52:42,15.08855416,0.0001469,53.2151,323.1837,77.8008,282.3149,0.00089726,0.00014027,0.0,0 STARLINK-3797,1 52337U 22045G   23016.57827154  .00014027  00000-0  89726-3 0  9993,2 52337  53.2151 323.1837 0001469  77.8008 282.3149 15.08855416 42318,6917.8330000000005,95.437,540.714,538.682,0.0
52337.0,STARLINK-3797,PAYLOAD,2023-01-17 05:46:35,15.08814397,0.0001939,53.2161,320.2134,64.1914,295.9278,-6.3067e-05,-1.291e-05,0.0,0 STARLINK-3797,1 52337U 22045G   23017.24068754 -.00001291  00000-0 -63067-4 0  9993,2 52337  53.2161 320.2134 0001939  64.1914 295.9278 15.08814397 42411,6917.959,95.439,541.165,538.482,0.0
52337.0,STARLINK-3797,PAYLOAD,2023-01-17 13:43:31,15.08823484,0.0001747,53.2168,318.7256,68.1208,291.997,0.0010189,0.00015958,0.0,0 STARLINK-3797,1 52337U 22045G   23017.57189298  .00015958  00000-0  10189-2 0  9994,2 52337  53.2168 318.7256 0001747  68.1208 291.9970 15.08823484 42469,6917.931,95.439,541.004,538.587,0.0
52337.0,STARLINK-3797,PAYLOAD,2023-01-18 00:51:13,15.08845348,0.000174,53.2166,316.6443,65.6115,294.5058,0.001343,0.00021154,0.0,0 STARLINK-3797,1 52337U 22045G   23018.03557434  .00021154  00000-0  13430-2 0  9994,2 52337  53.2166 316.6443 0001740  65.6115 294.5058 15.08845348 42531,6917.8640000000005,95.437,540.933,538.525,0.0
52337.0,STARLINK-3797,PAYLOAD,2023-01-18 05:37:22,15.08863315,0.0001738,53.2171,315.7519,67.4845,292.6331,0.0019707,0.00031235,0.0,0 STARLINK-3797,1 52337U 22045G   23018.23429170  .00031235  00000-0  19707-2 0  9995,2 52337  53.2171 315.7519 0001738  67.4845 292.6331 15.08863315 42568,6917.809,95.436,540.876,538.472,0.0
52337.0,STARLINK-3797,PAYLOAD,2023-01-19 05:28:08,15.08888149,0.000138,53.2179,311.2913,67.1271,292.9866,0.0015419,0.00024369,0.0,0 STARLINK-3797,1 52337U 22045G   23019.22787675  .00024369  00000-0  15419-2 0  9998,2 52337  53.2179 311.2913 0001380  67.1271 292.9866 15.08888149 42713,6917.733,95.435,540.553,538.644,0.0
52337.0,STARLINK-3797,PAYLOAD,2023-01-19 19:46:37,15.08866158,0.0001669,53.2182,308.6186,87.8289,272.2894,0.0020082,0.0003184,0.0,0 STARLINK-3797,1 52337U 22045G   23019.82404338  .00031840  00000-0  20082-2 0  9990,2 52337  53.2182 308.6186 0001669  87.8289 272.2894 15.08866158 42805,6917.8,95.436,540.82,538.511,0.0
52337.0,STARLINK-3797,PAYLOAD,2023-01-20 11:40:28,15.08831557,0.0001781999999999,53.2178,305.6427,97.4353,262.6842,0.00044013,6.722e-05,0.0,0 STARLINK-3797,1 52337U 22045G   23020.48644493  .00006722  00000-0  44013-3 0  9994,2 52337  53.2178 305.6427 0001782  97.4353 262.6842 15.08831557 42902,6917.906,95.438,541.004,538.538,0.0
52337.0,STARLINK-3797,PAYLOAD,2023-01-21 11:31:16,15.08844456,0.0001184,53.2163,301.1834,110.639,249.4729,0.0013746,0.00021659,0.0,0 STARLINK-3797,1 52337U 22045G   23021.48005230  .00021659  00000-0  13746-2 0  9999,2 52337  53.2163 301.1834 0001184 110.6390 249.4729 15.08844456 43050,6917.866999999999,95.437,540.5509999999999,538.913,0.0
52337.0,STARLINK-3797,PAYLOAD,2023-01-22 17:43:36,15.08854436,0.0001849,53.2173,295.535,105.5292,254.5905,0.00069517,0.00010797,0.0,0 STARLINK-3797,1 52337U 22045G   23022.73861270  .00010797  00000-0  69517-3 0  9991,2 52337  53.2173 295.5350 0001849 105.5292 254.5905 15.08854436 43245,6917.835999999999,95.437,540.98,538.422,0.0
